[{"OBJECT_NAME":"APRIZESAT 2","OBJECT_ID":"2004-025A","EPOCH":"2026-02-01T22:46:32.774880","MEAN_MOTION":14.37961171,"ECCENTRICITY":0.01045878,"INCLINATION":98.0856,"RA_OF_ASC_NODE":206.6793,"ARG_OF_PERICENTER":298.717,"MEAN_ANOMALY":60.3539,"EPHEMERIS_TYPE":0,"CLASSIFICATION_TYPE":"U","NORAD_CAT_ID":28366,"ELEMENT_SET_NO":999,"REV_AT_EPOCH":13220,"BSTAR":8.4580609e-5,"MEAN_MOTION_DOT":2.29e-6,"MEAN_MOTION_DDOT":0},{"OBJECT_NAME":"SAUDICOMSAT 1","OBJECT_ID":"2004-025D","EPOCH":"2026-02-01T17:14:02.530176","MEAN_MOTION":14.55342557,"ECCENTRICITY":0.00333899,"INCLINATION":98.5795,"RA_OF_ASC_NODE":39.1846,"ARG_OF_PERICENTER":78.9447,"MEAN_ANOMALY":281.5502,"EPHEMERIS_TYPE":0,"CLASSIFICATION_TYPE":"U","NORAD_CAT_ID":28369,"ELEMENT_SET_NO":999,"REV_AT_EPOCH":14442,"BSTAR":0.00012935679,"MEAN_MOTION_DOT":5.16e-6,"MEAN_MOTION_DDOT":0},{"OBJECT_NAME":"SAUDICOMSAT 2","OBJECT_ID":"2004-025E","EPOCH":"2026-02-01T22:29:19.118112","MEAN_MOTION":14.49875001,"ECCENTRICITY":0.00546791,"INCLINATION":98.6677,"RA_OF_ASC_NODE":41.3405,"ARG_OF_PERICENTER":310.1706,"MEAN_ANOMALY":49.4706,"EPHEMERIS_TYPE":0,"CLASSIFICATION_TYPE":"U","NORAD_CAT_ID":28370,"ELEMENT_SET_NO":999,"REV_AT_EPOCH":14050,"BSTAR":0.00012310563,"MEAN_MOTION_DOT":4.34e-6,"MEAN_MOTION_DDOT":0},{"OBJECT_NAME":"APRIZESAT 1","OBJECT_ID":"2004-025G","EPOCH":"2026-02-01T22:18:39.758976","MEAN_MOTION":14.51685602,"ECCENTRICITY":0.00441201,"INCLINATION":98.6331,"RA_OF_ASC_NODE":39.956,"ARG_OF_PERICENTER":205.2251,"MEAN_ANOMALY":154.6789,"EPHEMERIS_TYPE":0,"CLASSIFICATION_TYPE":"U","NORAD_CAT_ID":28372,"ELEMENT_SET_NO":999,"REV_AT_EPOCH":14228,"BSTAR":9.1217424e-5,"MEAN_MOTION_DOT":3.21e-6,"MEAN_MOTION_DDOT":0},{"OBJECT_NAME":"NANOSAT-1","OBJECT_ID":"2004-049B","EPOCH":"2026-02-01T22:51:25.089408","MEAN_MOTION":14.7979855,"ECCENTRICITY":0.00042998,"INCLINATION":98.2048,"RA_OF_ASC_NODE":166.5146,"ARG_OF_PERICENTER":24.6501,"MEAN_ANOMALY":335.4915,"EPHEMERIS_TYPE":0,"CLASSIFICATION_TYPE":"U","NORAD_CAT_ID":28493,"ELEMENT_SET_NO":999,"REV_AT_EPOCH":13544,"BSTAR":0.00017968492,"MEAN_MOTION_DOT":1.298e-5,"MEAN_MOTION_DDOT":0},{"OBJECT_NAME":"SAUDICOMSAT 7","OBJECT_ID":"2007-012C","EPOCH":"2026-02-01T21:42:37.461600","MEAN_MOTION":14.65905901,"ECCENTRICITY":0.00545539,"INCLINATION":98.3615,"RA_OF_ASC_NODE":4.4092,"ARG_OF_PERICENTER":260.3447,"MEAN_ANOMALY":99.1591,"EPHEMERIS_TYPE":0,"CLASSIFICATION_TYPE":"U","NORAD_CAT_ID":31119,"ELEMENT_SET_NO":999,"REV_AT_EPOCH":261,"BSTAR":0.0001644606,"MEAN_MOTION_DOT":8.65e-6,"MEAN_MOTION_DDOT":0},{"OBJECT_NAME":"SAUDICOMSAT 6","OBJECT_ID":"2007-012E","EPOCH":"2026-02-01T21:30:52.066944","MEAN_MOTION":14.62350832,"ECCENTRICITY":0.00727374,"INCLINATION":98.3923,"RA_OF_ASC_NODE":358.0495,"ARG_OF_PERICENTER":28.9591,"MEAN_ANOMALY":331.5616,"EPHEMERIS_TYPE":0,"CLASSIFICATION_TYPE":"U","NORAD_CAT_ID":31121,"ELEMENT_SET_NO":999,"REV_AT_EPOCH":41,"BSTAR":0.00019488723,"MEAN_MOTION_DOT":9.69e-6,"MEAN_MOTION_DDOT":0},{"OBJECT_NAME":"SAUDICOMSAT 5","OBJECT_ID":"2007-012H","EPOCH":"2026-02-01T20:40:06.246624","MEAN_MOTION":14.67930567,"ECCENTRICITY":0.00472405,"INCLINATION":98.3328,"RA_OF_ASC_NODE":5.1398,"ARG_OF_PERICENTER":189.8662,"MEAN_ANOMALY":170.1619,"EPHEMERIS_TYPE":0,"CLASSIFICATION_TYPE":"U","NORAD_CAT_ID":31124,"ELEMENT_SET_NO":999,"REV_AT_EPOCH":374,"BSTAR":0.00014681999,"MEAN_MOTION_DOT":8.01e-6,"MEAN_MOTION_DDOT":0},{"OBJECT_NAME":"SAUDICOMSAT 3","OBJECT_ID":"2007-012J","EPOCH":"2026-02-01T22:01:59.151072","MEAN_MOTION":14.70425043,"ECCENTRICITY":0.00404713,"INCLINATION":98.2984,"RA_OF_ASC_NODE":5.7629,"ARG_OF_PERICENTER":118.6891,"MEAN_ANOMALY":241.8392,"EPHEMERIS_TYPE":0,"CLASSIFICATION_TYPE":"U","NORAD_CAT_ID":31125,"ELEMENT_SET_NO":999,"REV_AT_EPOCH":494,"BSTAR":0.00017388577,"MEAN_MOTION_DOT":1.013e-5,"MEAN_MOTION_DDOT":0},{"OBJECT_NAME":"SAUDICOMSAT 4","OBJECT_ID":"2007-012L","EPOCH":"2026-02-01T20:49:13.184544","MEAN_MOTION":14.64306631,"ECCENTRICITY":0.00628672,"INCLINATION":98.3816,"RA_OF_ASC_NODE":2.8261,"ARG_OF_PERICENTER":322.2029,"MEAN_ANOMALY":37.4766,"EPHEMERIS_TYPE":0,"CLASSIFICATION_TYPE":"U","NORAD_CAT_ID":31127,"ELEMENT_SET_NO":999,"REV_AT_EPOCH":148,"BSTAR":0.00019998947,"MEAN_MOTION_DOT":1.032e-5,"MEAN_MOTION_DDOT":0},{"OBJECT_NAME":"APRIZESAT 4","OBJECT_ID":"2009-041D","EPOCH":"2026-02-01T18:37:44.690880","MEAN_MOTION":14.83631834,"ECCENTRICITY":0.00443102,"INCLINATION":98.1558,"RA_OF_ASC_NODE":105.3467,"ARG_OF_PERICENTER":42.0888,"MEAN_ANOMALY":318.3714,"EPHEMERIS_TYPE":0,"CLASSIFICATION_TYPE":"U","NORAD_CAT_ID":35684,"ELEMENT_SET_NO":999,"REV_AT_EPOCH":89128,"BSTAR":0.00012301838,"MEAN_MOTION_DOT":9.73e-6,"MEAN_MOTION_DDOT":0},{"OBJECT_NAME":"APRIZESAT 3","OBJECT_ID":"2009-041F","EPOCH":"2026-02-01T22:08:48.980832","MEAN_MOTION":14.95715053,"ECCENTRICITY":0.00627121,"INCLINATION":98.1829,"RA_OF_ASC_NODE":179.8778,"ARG_OF_PERICENTER":152.9759,"MEAN_ANOMALY":207.4749,"EPHEMERIS_TYPE":0,"CLASSIFICATION_TYPE":"U","NORAD_CAT_ID":35686,"ELEMENT_SET_NO":999,"REV_AT_EPOCH":89615,"BSTAR":0.00017542304,"MEAN_MOTION_DOT":1.964e-5,"MEAN_MOTION_DDOT":0},{"OBJECT_NAME":"S-NET D","OBJECT_ID":"2018-014G","EPOCH":"2026-02-01T22:49:32.035872","MEAN_MOTION":15.15125037,"ECCENTRICITY":0.00099024,"INCLINATION":97.5476,"RA_OF_ASC_NODE":298.6504,"ARG_OF_PERICENTER":120.1452,"MEAN_ANOMALY":240.0763,"EPHEMERIS_TYPE":0,"CLASSIFICATION_TYPE":"U","NORAD_CAT_ID":43186,"ELEMENT_SET_NO":999,"REV_AT_EPOCH":43827,"BSTAR":0.00033407043,"MEAN_MOTION_DOT":6.201e-5,"MEAN_MOTION_DDOT":0},{"OBJECT_NAME":"S-NET B","OBJECT_ID":"2018-014H","EPOCH":"2026-02-01T23:02:22.210656","MEAN_MOTION":15.15097128,"ECCENTRICITY":0.00106419,"INCLINATION":97.5481,"RA_OF_ASC_NODE":298.6411,"ARG_OF_PERICENTER":116.4337,"MEAN_ANOMALY":243.7988,"EPHEMERIS_TYPE":0,"CLASSIFICATION_TYPE":"U","NORAD_CAT_ID":43187,"ELEMENT_SET_NO":999,"REV_AT_EPOCH":43827,"BSTAR":0.00030891209,"MEAN_MOTION_DOT":5.725e-5,"MEAN_MOTION_DDOT":0},{"OBJECT_NAME":"S-NET A","OBJECT_ID":"2018-014J","EPOCH":"2026-02-01T22:48:48.574944","MEAN_MOTION":15.15130985,"ECCENTRICITY":0.00105127,"INCLINATION":97.5491,"RA_OF_ASC_NODE":298.8167,"ARG_OF_PERICENTER":117.0535,"MEAN_ANOMALY":243.1771,"EPHEMERIS_TYPE":0,"CLASSIFICATION_TYPE":"U","NORAD_CAT_ID":43188,"ELEMENT_SET_NO":999,"REV_AT_EPOCH":43827,"BSTAR":0.0003335385,"MEAN_MOTION_DOT":6.193e-5,"MEAN_MOTION_DDOT":0},{"OBJECT_NAME":"S-NET C","OBJECT_ID":"2018-014K","EPOCH":"2026-02-01T23:06:56.191104","MEAN_MOTION":15.15089337,"ECCENTRICITY":0.00120813,"INCLINATION":97.5507,"RA_OF_ASC_NODE":298.8828,"ARG_OF_PERICENTER":111.4462,"MEAN_ANOMALY":248.806,"EPHEMERIS_TYPE":0,"CLASSIFICATION_TYPE":"U","NORAD_CAT_ID":43189,"ELEMENT_SET_NO":999,"REV_AT_EPOCH":43682,"BSTAR":0.00029888206,"MEAN_MOTION_DOT":5.538e-5,"MEAN_MOTION_DDOT":0},{"OBJECT_NAME":"SALSAT","OBJECT_ID":"2020-068K","EPOCH":"2026-02-01T23:28:21.133632","MEAN_MOTION":15.27407493,"ECCENTRICITY":0.00120503,"INCLINATION":97.882,"RA_OF_ASC_NODE":28.0663,"ARG_OF_PERICENTER":61.9502,"MEAN_ANOMALY":298.2953,"EPHEMERIS_TYPE":0,"CLASSIFICATION_TYPE":"U","NORAD_CAT_ID":46495,"ELEMENT_SET_NO":999,"REV_AT_EPOCH":29470,"BSTAR":0.00032406807,"MEAN_MOTION_DOT":8.632e-5,"MEAN_MOTION_DDOT":0}]
