APRIZESAT 2             
1 28366U 04025A   26032.94899045  .00000229  00000+0  84581-4 0  9999
2 28366  98.0856 206.6793 0104587 298.7170  60.3539 14.37961171132209
SAUDICOMSAT 1           
1 28369U 04025D   26032.71808484  .00000516  00000+0  12936-3 0  9997
2 28369  98.5795  39.1846 0033389  78.9447 281.5502 14.55342557144428
SAUDICOMSAT 2           
1 28370U 04025E   26032.93702683  .00000434  00000+0  12311-3 0  9993
2 28370  98.6677  41.3405 0054679 310.1706  49.4706 14.49875001140500
APRIZESAT 1             
1 28372U 04025G   26032.92962684  .00000321  00000+0  91217-4 0  9991
2 28372  98.6331  39.9560 0044120 205.2251 154.6789 14.51685602142289
NANOSAT-1               
1 28493U 04049B   26032.95237372  .00001298  00000+0  17968-3 0  9997
2 28493  98.2048 166.5146 0004299  24.6501 335.4915 14.79798550135442
SAUDICOMSAT 7           
1 31119U 07012C   26032.90460025  .00000865  00000+0  16446-3 0  9996
2 31119  98.3615   4.4092 0054553 260.3447  99.1591 14.65905901  2619
SAUDICOMSAT 6           
1 31121U 07012E   26032.89643596  .00000969  00000+0  19489-3 0  9998
2 31121  98.3923 358.0495 0072737  28.9591 331.5616 14.62350832   412
SAUDICOMSAT 5           
1 31124U 07012H   26032.86118341  .00000801  00000+0  14682-3 0  9998
2 31124  98.3328   5.1398 0047240 189.8662 170.1619 14.67930567  3746
SAUDICOMSAT 3           
1 31125U 07012J   26032.91804573  .00001013  00000+0  17389-3 0  9997
2 31125  98.2984   5.7629 0040471 118.6891 241.8392 14.70425043  4949
SAUDICOMSAT 4           
1 31127U 07012L   26032.86751371  .00001032  00000+0  19999-3 0  9990
2 31127  98.3816   2.8261 0062867 322.2029  37.4766 14.64306631  1489
APRIZESAT 4             
1 35684U 09041D   26032.77621170  .00000973  00000+0  12302-3 0  9993
2 35684  98.1558 105.3467 0044310  42.0888 318.3714 14.83631834891288
APRIZESAT 3             
1 35686U 09041F   26032.92278913  .00001964  00000+0  17542-3 0  9997
2 35686  98.1829 179.8778 0062712 152.9759 207.4749 14.95715053896152
S-NET D                 
1 43186U 18014G   26032.95106523  .00006201  00000+0  33407-3 0  9998
2 43186  97.5476 298.6504 0009902 120.1452 240.0763 15.15125037438277
S-NET B                 
1 43187U 18014H   26032.95997929  .00005725  00000+0  30891-3 0  9991
2 43187  97.5481 298.6411 0010641 116.4337 243.7988 15.15097128438271
S-NET A                 
1 43188U 18014J   26032.95056221  .00006193  00000+0  33354-3 0  9990
2 43188  97.5491 298.8167 0010512 117.0535 243.1771 15.15130985438270
S-NET C                 
1 43189U 18014K   26032.96315036  .00005538  00000+0  29888-3 0  9993
2 43189  97.5507 298.8828 0012081 111.4462 248.8060 15.15089337436829
SALSAT                  
1 46495U 20068K   26032.97802238  .00008632  00000+0  32407-3 0  9993
2 46495  97.8820  28.0663 0012050  61.9502 298.2953 15.27407493294702
